0 COSMOS 2279
1 23092U 94024A   13282.51073370  .00000059  00000-0  44840-4 0  6835
2 23092 082.9503 052.3744 0034259 249.1900 110.5586 13.76240997976835
0 COSMOS 2279
1 23092U 94024A   13283.52857341  .00000057  00000-0  42926-4 0  6847
2 23092 082.9505 051.6195 0034276 246.2152 113.5409 13.76241310976977
0 COSMOS 2279
1 23092U 94024A   13285.92776725  .00000039  00000-0  24850-4 0  6867
2 23092 082.9511 049.8401 0034383 239.3092 120.4675 13.76241487977303
0 COSMOS 2279
1 23092U 94024A   13286.94560704  .00000055  00000-0  40590-4 0  6876
2 23092 082.9513 049.0853 0034441 236.3994 123.3874 13.76241516977442
0 COSMOS 2279
1 23092U 94024A   13287.96344710  .00000049  00000-0  34990-4 0  6887
2 23092 082.9515 048.3305 0034500 233.5053 126.2925 13.76241370977581
0 COSMOS 2279
1 23092U 94024A   13289.49020713  .00000077  00000-0  63810-4 0  6896
2 23092 082.9517 047.1985 0034599 229.1916 130.6239 13.76241618977796
0 COSMOS 2279
1 23092U 94024A   13291.45318485  .00000093  00000-0  79411-4 0  6905
2 23092 082.9517 045.7432 0034699 223.5843 136.2572 13.76241772978069
0 COSMOS 2279
1 23092U 94024A   13292.47102534  .00000098  00000-0  84965-4 0  6910
2 23092 082.9517 044.9886 0034758 220.6750 139.1810 13.76241949978203
0 COSMOS 2279
1 23092U 94024A   13293.77967755  .00000101  00000-0  87433-4 0  6927
2 23092 082.9517 044.0182 0034832 216.9063 142.9697 13.76242199978383
0 COSMOS 2279
1 23092U 94024A   13294.79751815  .00000086  00000-0  72485-4 0  6932
2 23092 082.9517 043.2634 0034902 214.0155 145.8764 13.76242396978527
0 COSMOS 2279
1 23092U 94024A   13295.96076442  .00000075  00000-0  61036-4 0  6947
2 23092 082.9518 042.4009 0034989 210.7717 149.1389 13.76242670978689
